$$SOE
2459580.500000000, A.D. 2022-Jan-01 00:00:00.0000, -2.523256692258131E+08, 1.091640142966289E+08, -2.767100635075540E+07,
2459587.500000000, A.D. 2022-Jan-08 00:00:00.0000, -2.607983172977882E+08, 9.769923626391591E+07, -2.857561335443746E+07,
2459594.500000000, A.D. 2022-Jan-15 00:00:00.0000, -2.686941788834705E+08, 8.601815891495015E+07, -2.941701549998246E+07,
2459601.500000000, A.D. 2022-Jan-22 00:00:00.0000, -2.760186987848440E+08, 7.415396675622262E+07, -3.019586059715440E+07,
2459608.500000000, A.D. 2022-Jan-29 00:00:00.0000, -2.827788966631700E+08, 6.213797544936416E+07, -3.091296497731102E+07,
2459615.500000000, A.D. 2022-Feb-05 00:00:00.0000, -2.889831239251605E+08, 4.999964185274211E+07, -3.156928663653376E+07,
2459622.500000000, A.D. 2022-Feb-12 00:00:00.0000, -2.946408413846809E+08, 3.776659478623310E+07, -3.216590120548360E+07,
2459629.500000000, A.D. 2022-Feb-19 00:00:00.0000, -2.997624187876877E+08, 2.546468405768902E+07, -3.270398039232912E+07,
2459636.500000000, A.D. 2022-Feb-26 00:00:00.0000, -3.043589567349281E+08, 1.311804282974378E+07, -3.318477274212321E+07,
2459643.500000000, A.D. 2022-Mar-05 00:00:00.0000, -3.084421296935625E+08, 7.491591352239680E+05, -3.360958664489467E+07,
2459650.500000000, A.D. 2022-Mar-12 00:00:00.0000, -3.120240484847501E+08, -1.162104651858997E+07, -3.397977546213663E+07,
2459657.500000000, A.D. 2022-Mar-19 00:00:00.0000, -3.151171406535453E+08, -2.397313989027114E+07, -3.429672460925061E+07,
2459664.500000000, A.D. 2022-Mar-26 00:00:00.0000, -3.177340471186512E+08, -3.628909007866259E+07, -3.456184042432237E+07,
2459671.500000000, A.D. 2022-Apr-02 00:00:00.0000, -3.198875334499368E+08, -4.855218656022324E+07, -3.477654065953302E+07,
2459678.500000000, A.D. 2022-Apr-09 00:00:00.0000, -3.215904139595350E+08, -6.074695741307329E+07, -3.494224644870746E+07,
2459685.500000000, A.D. 2022-Apr-16 00:00:00.0000, -3.228554867859194E+08, -7.285908901297802E+07, -3.506037556854156E+07,
2459692.500000000, A.D. 2022-Apr-23 00:00:00.0000, -3.236954798768992E+08, -8.487534681295145E+07, -3.513233663924873E+07,
2459699.500000000, A.D. 2022-Apr-30 00:00:00.0000, -3.241230084910840E+08, -9.678349994579028E+07, -3.515952414102070E+07,
2459706.500000000, A.D. 2022-May-07 00:00:00.0000, -3.241505400203938E+08, -1.085722519501731E+08, -3.514331456601643E+07,
2459713.500000000, A.D. 2022-May-14 00:00:00.0000, -3.237903637160507E+08, -1.202311747721177E+08, -3.508506347270093E+07,
2459720.500000000, A.D. 2022-May-21 00:00:00.0000, -3.230545664191508E+08, -1.317506453691972E+08, -3.498610309138911E+07,
2459727.500000000, A.D. 2022-May-28 00:00:00.0000, -3.219550139448802E+08, -1.431217858875469E+08, -3.484774042432389E+07,
2459734.500000000, A.D. 2022-Jun-04 00:00:00.0000, -3.205033371127972E+08, -1.543364076771435E+08, -3.467125581205697E+07,
2459741.500000000, A.D. 2022-Jun-11 00:00:00.0000, -3.187109216368874E+08, -1.653869590484338E+08, -3.445790190955777E+07,
2459748.500000000, A.D. 2022-Jun-18 00:00:00.0000, -3.165889012726347E+08, -1.762664766280620E+08, -3.420890301289095E+07,
2459755.500000000, A.D. 2022-Jun-25 00:00:00.0000, -3.141481536977785E+08, -1.869685401954226E+08, -3.392545468790963E+07,
2459762.500000000, A.D. 2022-Jul-02 00:00:00.0000, -3.113992985627134E+08, -1.974872309000767E+08, -3.360872367179542E+07,
2459769.500000000, A.D. 2022-Jul-09 00:00:00.0000, -3.083526969473727E+08, -2.078170925089622E+08, -3.325984802823444E+07,
2459776.500000000, A.D. 2022-Jul-16 00:00:00.0000, -3.050184519569500E+08, -2.179530944226174E+08, -3.287993742754890E+07,
2459783.500000000, A.D. 2022-Jul-23 00:00:00.0000, -3.014064123755130E+08, -2.278905962050904E+08, -3.247007331347056E+07,
2459790.500000000, A.D. 2022-Jul-30 00:00:00.0000, -2.975261790540195E+08, -2.376253168087944E+08, -3.203130921273713E+07,
2459797.500000000, A.D. 2022-Aug-06 00:00:00.0000, -2.933871102315111E+08, -2.471533076792110E+08, -3.156467144299006E+07,
2459804.500000000, A.D. 2022-Aug-13 00:00:00.0000, -2.889983264395134E+08, -2.564709268218690E+08, -3.107115989927116E+07,
2459811.500000000, A.D. 2022-Aug-20 00:00:00.0000, -2.843687164090019E+08, -2.655748141777835E+08, -3.055174879950058E+07,
2459818.500000000, A.D. 2022-Aug-27 00:00:00.0000, -2.795069437829896E+08, -2.744618688859872E+08, -3.000738744044429E+07,
2459825.500000000, A.D. 2022-Sep-03 00:00:00.0000, -2.744214542784237E+08, -2.831292284062185E+08, -2.943900098451959E+07,
2459832.500000000, A.D. 2022-Sep-10 00:00:00.0000, -2.691204831175267E+08, -2.915742493494413E+08, -2.884749127438857E+07,
2459839.500000000, A.D. 2022-Sep-17 00:00:00.0000, -2.636120626245075E+08, -2.997944898971360E+08, -2.823373767024842E+07,
2459846.500000000, A.D. 2022-Sep-24 00:00:00.0000, -2.579040298645573E+08, -3.077876937470618E+08, -2.759859791281971E+07,
2459853.500000000, A.D. 2022-Oct-01 00:00:00.0000, -2.520040340328511E+08, -3.155517755026361E+08, -2.694290903040101E+07,
2459860.500000000, A.D. 2022-Oct-08 00:00:00.0000, -2.459195431432357E+08, -3.230848068864809E+08, -2.626748828031461E+07,
2459867.500000000, A.D. 2022-Oct-15 00:00:00.0000, -2.396578509132702E+08, -3.303850024884880E+08, -2.557313393779315E+07,
2459874.500000000, A.D. 2022-Oct-22 00:00:00.0000, -2.332260859984002E+08, -3.374507066486350E+08, -2.486062586714216E+07,
2459881.500000000, A.D. 2022-Oct-29 00:00:00.0000, -2.266312210554396E+08, -3.442803839921187E+08, -2.413072631439780E+07,
2459888.500000000, A.D. 2022-Nov-05 00:00:00.0000, -2.198800795207740E+08, -3.508726108052586E+08, -2.338418088847873E+07,
2459895.500000000, A.D. 2022-Nov-12 00:00:00.0000, -2.129793420560911E+08, -3.572260659169695E+08, -2.262171944533721E+07,
2459902.500000000, A.D. 2022-Nov-19 00:00:00.0000, -2.059355533696862E+08, -3.633395219754958E+08, -2.184405688555481E+07,
2459909.500000000, A.D. 2022-Nov-26 00:00:00.0000, -1.987551291405049E+08, -3.692118374597912E+08, -2.105189392108010E+07,
2459916.500000000, A.D. 2022-Dec-03 00:00:00.0000, -1.914443628709275E+08, -3.748419493875431E+08, -2.024591782742135E+07,
2459923.500000000, A.D. 2022-Dec-10 00:00:00.0000, -1.840094326198109E+08, -3.802288666590118E+08, -1.942680318472174E+07,
2459930.500000000, A.D. 2022-Dec-17 00:00:00.0000, -1.764564075931047E+08, -3.853716640234734E+08, -1.859521261276615E+07,
2459937.500000000, A.D. 2022-Dec-24 00:00:00.0000, -1.687912544873029E+08, -3.902694766972741E+08, -1.775179751571897E+07,
2459944.500000000, A.D. 2022-Dec-31 00:00:00.0000, -1.610198432332201E+08, -3.949214954903661E+08, -1.689719886074010E+07,
2459951.500000000, A.D. 2023-Jan-07 00:00:00.0000, -1.531479520223412E+08, -3.993269614452876E+08, -1.603204792319110E+07,
2459958.500000000, A.D. 2023-Jan-14 00:00:00.0000, -1.451812735873883E+08, -4.034851594602295E+08, -1.515696677762666E+07,
2459965.500000000, A.D. 2023-Jan-21 00:00:00.0000, -1.371254233860568E+08, -4.073954140402974E+08, -1.427256873519930E+07,
2459972.500000000, A.D. 2023-Jan-28 00:00:00.0000, -1.289859460250708E+08, -4.110570873486435E+08, -1.337945908065650E+07,
2459979.500000000, A.D. 2023-Feb-04 00:00:00.0000, -1.207683201401008E+08, -4.144695765088928E+08, -1.247823584308895E+07,
2459986.500000000, A.D. 2023-Feb-11 00:00:00.0000, -1.124779635344370E+08, -4.176323103325422E+08, -1.156949045219776E+07,
2459993.500000000, A.D. 2023-Feb-18 00:00:00.0000, -1.041202386473533E+08, -4.205447462757629E+08, -1.065380834218690E+07,
2460000.500000000, A.D. 2023-Feb-25 00:00:00.0000, -9.570045809695745E+07, -4.232063677702060E+08, -9.731769541317105E+06,
2460007.500000000, A.D. 2023-Mar-04 00:00:00.0000, -8.722389020268652E+07, -4.256166818937415E+08, -8.803949255771160E+06,
2460014.500000000, A.D. 2023-Mar-11 00:00:00.0000, -7.869576446624665E+07, -4.277752173677763E+08, -7.870918451277554E+06,
2460021.500000000, A.D. 2023-Mar-18 00:00:00.0000, -7.012127697198325E+07, -4.296815229199973E+08, -6.933244441654265E+06,
2460028.500000000, A.D. 2023-Mar-25 00:00:00.0000, -6.150559551208454E+07, -4.313351660505567E+08, -5.991491507489830E+06,
2460035.500000000, A.D. 2023-Apr-01 00:00:00.0000, -5.285386402114029E+07, -4.327357318001441E+08, -5.046221552422553E+06,
2460042.500000000, A.D. 2023-Apr-08 00:00:00.0000, -4.417120694462112E+07, -4.338828202875833E+08, -4.097994641164869E+06,
2460049.500000000, A.D. 2023-Apr-15 00:00:00.0000, -3.546273588714597E+07, -4.347760441160362E+08, -3.147369296124816E+06,
2460056.500000000, A.D. 2023-Apr-22 00:00:00.0000, -2.673355673939360E+07, -4.354150286942655E+08, -2.194902968999624E+06,
2460063.500000000, A.D. 2023-Apr-29 00:00:00.0000, -1.798877455689719E+07, -4.357994132178114E+08, -1.241152755160153E+06,
2460070.500000000, A.D. 2023-May-06 00:00:00.0000, -9.233497960248245E+06, -4.359288505281957E+08, -2.866760447999537E+05,
2460077.500000000, A.D. 2023-May-13 00:00:00.0000, -4.728440430910686E+05, -4.358030067432748E+08, 6.679689046883881E+05,
2460084.500000000, A.D. 2023-May-20 00:00:00.0000, 8.288056436611577E+06, -4.354215611502014E+08, 1.622222412363768E+06,
2460091.500000000, A.D. 2023-May-27 00:00:00.0000, 1.704405376583926E+07, -4.347842063917661E+08, 2.575522812015921E+06,
2460098.500000000, A.D. 2023-Jun-03 00:00:00.0000, 2.578997393436376E+07, -4.338906489225239E+08, 3.527305880553335E+06,
2460105.500000000, A.D. 2023-Jun-10 00:00:00.0000, 3.452061325571731E+07, -4.327406097524889E+08, 4.477004251784176E+06,
2460112.500000000, A.D. 2023-Jun-17 00:00:00.0000, 4.323073303086789E+07, -4.313338255445973E+08, 5.424046801200807E+06,
2460119.500000000, A.D. 2023-Jun-24 00:00:00.0000, 5.191505456441037E+07, -4.296700500181134E+08, 6.367857975810498E+06,
2460126.500000000, A.D. 2023-Jul-01 00:00:00.0000, 6.056825477547296E+07, -4.277490548386180E+08, 7.307857112419546E+06,
2460133.500000000, A.D. 2023-Jul-08 00:00:00.0000, 6.918496071785626E+07, -4.255706291813842E+08, 8.243457964035571E+06,
2460140.500000000, A.D. 2023-Jul-15 00:00:00.0000, 7.775974172137345E+07, -4.231345808062305E+08, 9.174068319001079E+06,
$$EOE